[{"OBJECT_NAME":"STARLINK-31022","OBJECT_ID":"2023-203R","EPOCH":"2026-03-09T09:53:47.839200","MEAN_MOTION":15.27577525,"ECCENTRICITY":0.00010283,"INCLINATION":43.0034,"RA_OF_ASC_NODE":72.5499,"ARG_OF_PERICENTER":255.0909,"MEAN_ANOMALY":104.9828,"EPHEMERIS_TYPE":0,"CLASSIFICATION_TYPE":"U","NORAD_CAT_ID":58633,"ELEMENT_SET_NO":999,"REV_AT_EPOCH":12470,"BSTAR":-3.839622e-6,"MEAN_MOTION_DOT":-3.68e-6,"MEAN_MOTION_DDOT":0},{"OBJECT_NAME":"OBJECT B","OBJECT_ID":"2024-153B","EPOCH":"2026-03-09T23:15:18.632160","MEAN_MOTION":15.30512917,"ECCENTRICITY":0.00113423,"INCLINATION":97.6622,"RA_OF_ASC_NODE":204.9195,"ARG_OF_PERICENTER":149.8438,"MEAN_ANOMALY":210.3457,"EPHEMERIS_TYPE":0,"CLASSIFICATION_TYPE":"U","NORAD_CAT_ID":60746,"ELEMENT_SET_NO":999,"REV_AT_EPOCH":8476,"BSTAR":0.00066193599,"MEAN_MOTION_DOT":0.00019515,"MEAN_MOTION_DDOT":0}]
